[{"OBJECT_NAME":"ONEWEB-0297","OBJECT_ID":"2021-075M","EPOCH":"2025-12-07T19:59:34.339776","MEAN_MOTION":13.12442889,"ECCENTRICITY":0.00017073,"INCLINATION":87.8931,"RA_OF_ASC_NODE":28.7048,"ARG_OF_PERICENTER":99.8404,"MEAN_ANOMALY":260.2917,"EPHEMERIS_TYPE":0,"CLASSIFICATION_TYPE":"U","NORAD_CAT_ID":49086,"ELEMENT_SET_NO":999,"REV_AT_EPOCH":21008,"BSTAR":0.00056010199,"MEAN_MOTION_DOT":2.14e-6,"MEAN_MOTION_DDOT":0},{"OBJECT_NAME":"ONEWEB-0298","OBJECT_ID":"2021-075N","EPOCH":"2025-12-07T21:48:48.170304","MEAN_MOTION":13.17649724,"ECCENTRICITY":0.00018078,"INCLINATION":87.9113,"RA_OF_ASC_NODE":43.9073,"ARG_OF_PERICENTER":101.5781,"MEAN_ANOMALY":258.5553,"EPHEMERIS_TYPE":0,"CLASSIFICATION_TYPE":"U","NORAD_CAT_ID":49087,"ELEMENT_SET_NO":999,"REV_AT_EPOCH":20843,"BSTAR":0.00014356041,"MEAN_MOTION_DOT":6.9e-7,"MEAN_MOTION_DDOT":0},{"OBJECT_NAME":"ONEWEB-0299","OBJECT_ID":"2021-075P","EPOCH":"2025-12-07T21:51:02.161152","MEAN_MOTION":13.17649598,"ECCENTRICITY":0.00016183,"INCLINATION":87.9125,"RA_OF_ASC_NODE":43.8682,"ARG_OF_PERICENTER":106.0322,"MEAN_ANOMALY":254.0988,"EPHEMERIS_TYPE":0,"CLASSIFICATION_TYPE":"U","NORAD_CAT_ID":49088,"ELEMENT_SET_NO":999,"REV_AT_EPOCH":20841,"BSTAR":0.00018616958,"MEAN_MOTION_DOT":8.5e-7,"MEAN_MOTION_DDOT":0},{"OBJECT_NAME":"ONEWEB-0300","OBJECT_ID":"2021-075Q","EPOCH":"2025-12-07T21:37:40.224000","MEAN_MOTION":13.12443562,"ECCENTRICITY":0.00020471,"INCLINATION":87.8941,"RA_OF_ASC_NODE":28.6507,"ARG_OF_PERICENTER":102.358,"MEAN_ANOMALY":257.7778,"EPHEMERIS_TYPE":0,"CLASSIFICATION_TYPE":"U","NORAD_CAT_ID":49089,"ELEMENT_SET_NO":999,"REV_AT_EPOCH":21011,"BSTAR":0.0011305188,"MEAN_MOTION_DOT":4.19e-6,"MEAN_MOTION_DDOT":0},{"OBJECT_NAME":"ONEWEB-0301","OBJECT_ID":"2021-075R","EPOCH":"2025-12-07T21:14:18.917088","MEAN_MOTION":13.12443713,"ECCENTRICITY":0.00021361,"INCLINATION":87.894,"RA_OF_ASC_NODE":28.656,"ARG_OF_PERICENTER":103.1535,"MEAN_ANOMALY":256.9832,"EPHEMERIS_TYPE":0,"CLASSIFICATION_TYPE":"U","NORAD_CAT_ID":49090,"ELEMENT_SET_NO":999,"REV_AT_EPOCH":20947,"BSTAR":0.00089920181,"MEAN_MOTION_DOT":3.36e-6,"MEAN_MOTION_DDOT":0},{"OBJECT_NAME":"ONEWEB-0302","OBJECT_ID":"2021-075S","EPOCH":"2025-12-07T20:55:36.584544","MEAN_MOTION":13.12445282,"ECCENTRICITY":0.00014634,"INCLINATION":87.8942,"RA_OF_ASC_NODE":28.6666,"ARG_OF_PERICENTER":91.0645,"MEAN_ANOMALY":269.0651,"EPHEMERIS_TYPE":0,"CLASSIFICATION_TYPE":"U","NORAD_CAT_ID":49091,"ELEMENT_SET_NO":999,"REV_AT_EPOCH":20945,"BSTAR":-5.8243714e-5,"MEAN_MOTION_DOT":-8.0e-8,"MEAN_MOTION_DDOT":0},{"OBJECT_NAME":"ONEWEB-0304","OBJECT_ID":"2021-075T","EPOCH":"2025-12-07T21:14:35.657952","MEAN_MOTION":13.17649665,"ECCENTRICITY":0.00016067,"INCLINATION":87.912,"RA_OF_ASC_NODE":43.904,"ARG_OF_PERICENTER":102.7172,"MEAN_ANOMALY":257.4139,"EPHEMERIS_TYPE":0,"CLASSIFICATION_TYPE":"U","NORAD_CAT_ID":49092,"ELEMENT_SET_NO":999,"REV_AT_EPOCH":20838,"BSTAR":0.00025053139,"MEAN_MOTION_DOT":1.1e-6,"MEAN_MOTION_DDOT":0},{"OBJECT_NAME":"ONEWEB-0305","OBJECT_ID":"2021-075U","EPOCH":"2025-12-07T17:26:09.492864","MEAN_MOTION":13.17650513,"ECCENTRICITY":0.00014517,"INCLINATION":87.9122,"RA_OF_ASC_NODE":43.9127,"ARG_OF_PERICENTER":112.649,"MEAN_ANOMALY":247.4795,"EPHEMERIS_TYPE":0,"CLASSIFICATION_TYPE":"U","NORAD_CAT_ID":49093,"ELEMENT_SET_NO":999,"REV_AT_EPOCH":20839,"BSTAR":-4.6622764e-5,"MEAN_MOTION_DOT":-5.0e-8,"MEAN_MOTION_DDOT":0},{"OBJECT_NAME":"ONEWEB-0308","OBJECT_ID":"2021-075V","EPOCH":"2025-12-07T20:46:15.568608","MEAN_MOTION":13.12444686,"ECCENTRICITY":0.00017446,"INCLINATION":87.8943,"RA_OF_ASC_NODE":28.6609,"ARG_OF_PERICENTER":98.1451,"MEAN_ANOMALY":261.9876,"EPHEMERIS_TYPE":0,"CLASSIFICATION_TYPE":"U","NORAD_CAT_ID":49094,"ELEMENT_SET_NO":999,"REV_AT_EPOCH":20946,"BSTAR":-0.00049542999,"MEAN_MOTION_DOT":-1.66e-6,"MEAN_MOTION_DDOT":0},{"OBJECT_NAME":"ONEWEB-0309","OBJECT_ID":"2021-075W","EPOCH":"2025-12-07T21:09:43.485984","MEAN_MOTION":13.17650111,"ECCENTRICITY":0.00014612,"INCLINATION":87.9122,"RA_OF_ASC_NODE":43.8976,"ARG_OF_PERICENTER":88.2009,"MEAN_ANOMALY":271.929,"EPHEMERIS_TYPE":0,"CLASSIFICATION_TYPE":"U","NORAD_CAT_ID":49095,"ELEMENT_SET_NO":999,"REV_AT_EPOCH":20838,"BSTAR":0.00023435783,"MEAN_MOTION_DOT":1.04e-6,"MEAN_MOTION_DDOT":0},{"OBJECT_NAME":"ONEWEB-0310","OBJECT_ID":"2021-075X","EPOCH":"2025-12-07T21:07:17.171904","MEAN_MOTION":13.12445725,"ECCENTRICITY":0.00016781,"INCLINATION":87.8933,"RA_OF_ASC_NODE":28.6952,"ARG_OF_PERICENTER":95.5706,"MEAN_ANOMALY":264.5614,"EPHEMERIS_TYPE":0,"CLASSIFICATION_TYPE":"U","NORAD_CAT_ID":49096,"ELEMENT_SET_NO":999,"REV_AT_EPOCH":21009,"BSTAR":0.00067000843,"MEAN_MOTION_DOT":2.54e-6,"MEAN_MOTION_DDOT":0},{"OBJECT_NAME":"ONEWEB-0311","OBJECT_ID":"2021-075Y","EPOCH":"2025-12-07T21:19:26.665248","MEAN_MOTION":13.17649181,"ECCENTRICITY":0.00016147,"INCLINATION":87.9118,"RA_OF_ASC_NODE":43.8923,"ARG_OF_PERICENTER":112.8252,"MEAN_ANOMALY":247.305,"EPHEMERIS_TYPE":0,"CLASSIFICATION_TYPE":"U","NORAD_CAT_ID":49097,"ELEMENT_SET_NO":999,"REV_AT_EPOCH":20843,"BSTAR":0.00031214544,"MEAN_MOTION_DOT":1.34e-6,"MEAN_MOTION_DDOT":0},{"OBJECT_NAME":"ONEWEB-0312","OBJECT_ID":"2021-075Z","EPOCH":"2025-12-07T16:13:16.438944","MEAN_MOTION":13.17649639,"ECCENTRICITY":0.00013827,"INCLINATION":87.9113,"RA_OF_ASC_NODE":43.9608,"ARG_OF_PERICENTER":103.6833,"MEAN_ANOMALY":256.4453,"EPHEMERIS_TYPE":0,"CLASSIFICATION_TYPE":"U","NORAD_CAT_ID":49098,"ELEMENT_SET_NO":999,"REV_AT_EPOCH":20838,"BSTAR":-5.9467052e-5,"MEAN_MOTION_DOT":-1.0e-7,"MEAN_MOTION_DDOT":0},{"OBJECT_NAME":"ONEWEB-0313","OBJECT_ID":"2021-075AA","EPOCH":"2025-12-07T21:48:24.832800","MEAN_MOTION":13.17651283,"ECCENTRICITY":0.00016854,"INCLINATION":87.9113,"RA_OF_ASC_NODE":43.922,"ARG_OF_PERICENTER":103.9158,"MEAN_ANOMALY":256.2161,"EPHEMERIS_TYPE":0,"CLASSIFICATION_TYPE":"U","NORAD_CAT_ID":49099,"ELEMENT_SET_NO":999,"REV_AT_EPOCH":20840,"BSTAR":1.5622056e-5,"MEAN_MOTION_DOT":1.9e-7,"MEAN_MOTION_DDOT":0},{"OBJECT_NAME":"ONEWEB-0314","OBJECT_ID":"2021-075AB","EPOCH":"2025-12-07T21:00:00.292896","MEAN_MOTION":13.17650137,"ECCENTRICITY":0.00013418,"INCLINATION":87.9121,"RA_OF_ASC_NODE":43.8805,"ARG_OF_PERICENTER":106.0171,"MEAN_ANOMALY":254.1108,"EPHEMERIS_TYPE":0,"CLASSIFICATION_TYPE":"U","NORAD_CAT_ID":49100,"ELEMENT_SET_NO":999,"REV_AT_EPOCH":20837,"BSTAR":0.00017513356,"MEAN_MOTION_DOT":8.1e-7,"MEAN_MOTION_DDOT":0},{"OBJECT_NAME":"ONEWEB-0315","OBJECT_ID":"2021-075AC","EPOCH":"2025-12-07T20:29:54.784320","MEAN_MOTION":13.12444529,"ECCENTRICITY":0.00017371,"INCLINATION":87.894,"RA_OF_ASC_NODE":28.649,"ARG_OF_PERICENTER":111.1875,"MEAN_ANOMALY":248.9439,"EPHEMERIS_TYPE":0,"CLASSIFICATION_TYPE":"U","NORAD_CAT_ID":49101,"ELEMENT_SET_NO":999,"REV_AT_EPOCH":21007,"BSTAR":-0.00085495593,"MEAN_MOTION_DOT":-2.95e-6,"MEAN_MOTION_DDOT":0},{"OBJECT_NAME":"ONEWEB-0316","OBJECT_ID":"2021-075AD","EPOCH":"2025-12-07T19:09:36.670176","MEAN_MOTION":13.18685808,"ECCENTRICITY":0.00017828,"INCLINATION":87.9177,"RA_OF_ASC_NODE":13.4797,"ARG_OF_PERICENTER":97.8968,"MEAN_ANOMALY":262.2367,"EPHEMERIS_TYPE":0,"CLASSIFICATION_TYPE":"U","NORAD_CAT_ID":49102,"ELEMENT_SET_NO":999,"REV_AT_EPOCH":21198,"BSTAR":0.00021558922,"MEAN_MOTION_DOT":9.8e-7,"MEAN_MOTION_DDOT":0}]
