ONEWEB-0297             
1 49086U 21075M   25341.83303634  .00000214  00000+0  56010-3 0  9998
2 49086  87.8931  28.7048 0001707  99.8404 260.2917 13.12442889210083
ONEWEB-0298             
1 49087U 21075N   25341.90889086  .00000069  00000+0  14356-3 0  9992
2 49087  87.9113  43.9073 0001807 101.5781 258.5553 13.17649724208438
ONEWEB-0299             
1 49088U 21075P   25341.91044168  .00000085  00000+0  18617-3 0  9990
2 49088  87.9125  43.8682 0001618 106.0322 254.0988 13.17649598208418
ONEWEB-0300             
1 49089U 21075Q   25341.90116000  .00000419  00000+0  11305-2 0  9992
2 49089  87.8941  28.6507 0002047 102.3580 257.7778 13.12443562210118
ONEWEB-0301             
1 49090U 21075R   25341.88494117  .00000336  00000+0  89920-3 0  9996
2 49090  87.8940  28.6560 0002136 103.1535 256.9832 13.12443713209473
ONEWEB-0302             
1 49091U 21075S   25341.87195121 -.00000008  00000+0 -58244-4 0  9993
2 49091  87.8942  28.6666 0001463  91.0645 269.0651 13.12445282209457
ONEWEB-0304             
1 49092U 21075T   25341.88513493  .00000110  00000+0  25053-3 0  9994
2 49092  87.9120  43.9040 0001606 102.7172 257.4139 13.17649665208386
ONEWEB-0305             
1 49093U 21075U   25341.72649876 -.00000005  00000+0 -46623-4 0  9995
2 49093  87.9122  43.9127 0001451 112.6490 247.4795 13.17650513208398
ONEWEB-0308             
1 49094U 21075V   25341.86545797 -.00000166  00000+0 -49543-3 0  9999
2 49094  87.8943  28.6609 0001744  98.1451 261.9876 13.12444686209461
ONEWEB-0309             
1 49095U 21075W   25341.88175331  .00000104  00000+0  23436-3 0  9998
2 49095  87.9122  43.8976 0001461  88.2009 271.9290 13.17650111208381
ONEWEB-0310             
1 49096U 21075X   25341.88005986  .00000254  00000+0  67001-3 0  9999
2 49096  87.8933  28.6952 0001678  95.5706 264.5614 13.12445725210098
ONEWEB-0311             
1 49097U 21075Y   25341.88850307  .00000134  00000+0  31215-3 0  9990
2 49097  87.9118  43.8923 0001614 112.8252 247.3050 13.17649181208436
ONEWEB-0312             
1 49098U 21075Z   25341.67588471 -.00000010  00000+0 -59467-4 0  9993
2 49098  87.9113  43.9608 0001382 103.6833 256.4453 13.17649639208388
ONEWEB-0313             
1 49099U 21075AA  25341.90862075  .00000019  00000+0  15622-4 0  9997
2 49099  87.9113  43.9220 0001685 103.9158 256.2161 13.17651283208403
ONEWEB-0314             
1 49100U 21075AB  25341.87500339  .00000081  00000+0  17513-3 0  9997
2 49100  87.9121  43.8805 0001341 106.0171 254.1108 13.17650137208372
ONEWEB-0315             
1 49101U 21075AC  25341.85410630 -.00000295  00000+0 -85496-3 0  9994
2 49101  87.8940  28.6490 0001737 111.1875 248.9439 13.12444529210078
ONEWEB-0316             
1 49102U 21075AD  25341.79834109  .00000098  00000+0  21559-3 0  9998
2 49102  87.9177  13.4797 0001782  97.8968 262.2367 13.18685808211980
